0 SL-6 R/B(2)
1 12680U 81071D   13281.61390618 -.00000651  00000-0  10000-3 0  2094
2 12680 067.5596 041.4241 5869130 104.9395 323.8478 01.99251783152453
0 SL-6 R/B(2)
1 12680U 81071D   13282.04653749 -.00000649  00000-0  75619+0 0  2101
2 12680 067.5581 041.3973 5869198 104.9316 274.1601 01.99250601152459
0 SL-6 R/B(2)
1 12680U 81071D   13290.08952698 -.00000871  00000-0 -94878+0 0  2116
2 12680 067.5650 040.8862 5870056 104.7404 283.3178 01.99239643152610
0 SL-6 R/B(2)
1 12680U 81071D   13292.64937470 -.00000851  00000-0 -91872+0 0  2121
2 12680 067.5672 040.7237 5870259 104.6792 319.3975 01.99235029152667
0 SL-6 R/B(2)
1 12680U 81071D   13294.96623288 -.00000780  00000-0 -63591+0 0  2136
2 12680 067.5690 040.5767 5870443 104.6233 181.1544 01.99230733152718
